CCSDS_OMM_VERS = 2.0
CREATION_DATE  = 
ORIGINATOR     = 

OBJECT_NAME    = STARLINK-37049
OBJECT_ID      = 2026-049L
CENTER_NAME    = EARTH
REF_FRAME      = TEME
TIME_SYSTEM    = UTC
MEAN_ELEMENT_THEORY = SGP/SGP4

EPOCH          = 2026-03-19T00:18:24.647328
MEAN_MOTION    = 16.04917116
ECCENTRICITY   = .0000474
INCLINATION    = 97.2794
RA_OF_ASC_NODE = 97.5302
ARG_OF_PERICENTER = 89.6838
MEAN_ANOMALY   = 270.4498

EPHEMERIS_TYPE = 0
CLASSIFICATION_TYPE = U
NORAD_CAT_ID   = 68152
ELEMENT_SET_NO = 999
REV_AT_EPOCH   = 87
BSTAR          = -.61657E-3
MEAN_MOTION_DOT = -.417006E-2
MEAN_MOTION_DDOT = .68149E-4

CCSDS_OMM_VERS = 2.0
CREATION_DATE  = 
ORIGINATOR     = 

OBJECT_NAME    = STARLINK-37072
OBJECT_ID      = 2026-049M
CENTER_NAME    = EARTH
REF_FRAME      = TEME
TIME_SYSTEM    = UTC
MEAN_ELEMENT_THEORY = SGP/SGP4

EPOCH          = 2026-03-19T12:16:50.098080
MEAN_MOTION    = 16.03506250
ECCENTRICITY   = .0002614
INCLINATION    = 97.2788
RA_OF_ASC_NODE = 98.0760
ARG_OF_PERICENTER = 12.6003
MEAN_ANOMALY   = 347.5342

EPHEMERIS_TYPE = 0
CLASSIFICATION_TYPE = U
NORAD_CAT_ID   = 68153
ELEMENT_SET_NO = 999
REV_AT_EPOCH   = 95
BSTAR          = -.25962E-3
MEAN_MOTION_DOT = -.162025E-2
MEAN_MOTION_DDOT = .12479E-4

CCSDS_OMM_VERS = 2.0
CREATION_DATE  = 
ORIGINATOR     = 

OBJECT_NAME    = STARLINK-36241
OBJECT_ID      = 2026-049N
CENTER_NAME    = EARTH
REF_FRAME      = TEME
TIME_SYSTEM    = UTC
MEAN_ELEMENT_THEORY = SGP/SGP4

EPOCH          = 2026-03-19T12:15:49.006368
MEAN_MOTION    = 16.03790974
ECCENTRICITY   = .0002702
INCLINATION    = 97.2787
RA_OF_ASC_NODE = 98.0764
ARG_OF_PERICENTER = 13.1240
MEAN_ANOMALY   = 347.0110

EPHEMERIS_TYPE = 0
CLASSIFICATION_TYPE = U
NORAD_CAT_ID   = 68154
ELEMENT_SET_NO = 999
REV_AT_EPOCH   = 95
BSTAR          = -.21485E-3
MEAN_MOTION_DOT = -.136495E-2
MEAN_MOTION_DDOT = .95698E-5

CCSDS_OMM_VERS = 2.0
CREATION_DATE  = 
ORIGINATOR     = 

OBJECT_NAME    = STARLINK-37048
OBJECT_ID      = 2026-049P
CENTER_NAME    = EARTH
REF_FRAME      = TEME
TIME_SYSTEM    = UTC
MEAN_ELEMENT_THEORY = SGP/SGP4

EPOCH          = 2026-03-19T07:45:22.656096
MEAN_MOTION    = 16.04907380
ECCENTRICITY   = .0002251
INCLINATION    = 97.2786
RA_OF_ASC_NODE = 97.8732
ARG_OF_PERICENTER = 149.8692
MEAN_ANOMALY   = 210.2719

EPHEMERIS_TYPE = 0
CLASSIFICATION_TYPE = U
NORAD_CAT_ID   = 68155
ELEMENT_SET_NO = 999
REV_AT_EPOCH   = 92
BSTAR          = .15061E-3
MEAN_MOTION_DOT = .101037E-2
MEAN_MOTION_DDOT = .66606E-5

CCSDS_OMM_VERS = 2.0
CREATION_DATE  = 
ORIGINATOR     = 

OBJECT_NAME    = STARLINK-36313
OBJECT_ID      = 2026-049Q
CENTER_NAME    = EARTH
REF_FRAME      = TEME
TIME_SYSTEM    = UTC
MEAN_ELEMENT_THEORY = SGP/SGP4

EPOCH          = 2026-03-19T12:15:24.149088
MEAN_MOTION    = 16.03927223
ECCENTRICITY   = .0002314
INCLINATION    = 97.2787
RA_OF_ASC_NODE = 98.0771
ARG_OF_PERICENTER = 1.4479
MEAN_ANOMALY   = 358.6808

EPHEMERIS_TYPE = 0
CLASSIFICATION_TYPE = U
NORAD_CAT_ID   = 68156
ELEMENT_SET_NO = 999
REV_AT_EPOCH   = 95
BSTAR          = -.26937E-3
MEAN_MOTION_DOT = -.172305E-2
MEAN_MOTION_DDOT = .13864E-4

CCSDS_OMM_VERS = 2.0
CREATION_DATE  = 
ORIGINATOR     = 

OBJECT_NAME    = STARLINK-37064
OBJECT_ID      = 2026-049R
CENTER_NAME    = EARTH
REF_FRAME      = TEME
TIME_SYSTEM    = UTC
MEAN_ELEMENT_THEORY = SGP/SGP4

EPOCH          = 2026-03-19T12:16:14.522880
MEAN_MOTION    = 16.03667729
ECCENTRICITY   = .00022388
INCLINATION    = 97.2784
RA_OF_ASC_NODE = 98.0764
ARG_OF_PERICENTER = 357.8304
MEAN_ANOMALY   = 2.2966

EPHEMERIS_TYPE = 0
CLASSIFICATION_TYPE = U
NORAD_CAT_ID   = 68157
ELEMENT_SET_NO = 999
REV_AT_EPOCH   = 95
BSTAR          = -.22898351E-3
MEAN_MOTION_DOT = -.144348E-2
MEAN_MOTION_DDOT = .10411467E-4

CCSDS_OMM_VERS = 2.0
CREATION_DATE  = 
ORIGINATOR     = 

OBJECT_NAME    = STARLINK-37069
OBJECT_ID      = 2026-049S
CENTER_NAME    = EARTH
REF_FRAME      = TEME
TIME_SYSTEM    = UTC
MEAN_ELEMENT_THEORY = SGP/SGP4

EPOCH          = 2026-03-19T12:13:33.650400
MEAN_MOTION    = 16.06600253
ECCENTRICITY   = .0001368
INCLINATION    = 97.2784
RA_OF_ASC_NODE = 98.0788
ARG_OF_PERICENTER = 7.2640
MEAN_ANOMALY   = 352.8662

EPHEMERIS_TYPE = 0
CLASSIFICATION_TYPE = U
NORAD_CAT_ID   = 68158
ELEMENT_SET_NO = 999
REV_AT_EPOCH   = 95
BSTAR          = .14785E-2
MEAN_MOTION_DOT = .1093981E-1
MEAN_MOTION_DDOT = .68408E-3

CCSDS_OMM_VERS = 2.0
CREATION_DATE  = 
ORIGINATOR     = 

OBJECT_NAME    = STARLINK-37053
OBJECT_ID      = 2026-049T
CENTER_NAME    = EARTH
REF_FRAME      = TEME
TIME_SYSTEM    = UTC
MEAN_ELEMENT_THEORY = SGP/SGP4

EPOCH          = 2026-03-19T07:44:16.985184
MEAN_MOTION    = 16.05261971
ECCENTRICITY   = .00025313
INCLINATION    = 97.2784
RA_OF_ASC_NODE = 97.8738
ARG_OF_PERICENTER = 141.0873
MEAN_ANOMALY   = 219.0591

EPHEMERIS_TYPE = 0
CLASSIFICATION_TYPE = U
NORAD_CAT_ID   = 68159
ELEMENT_SET_NO = 999
REV_AT_EPOCH   = 92
BSTAR          = .95454192E-4
MEAN_MOTION_DOT = .65181E-3
MEAN_MOTION_DDOT = .4110318E-5

CCSDS_OMM_VERS = 2.0
CREATION_DATE  = 
ORIGINATOR     = 

OBJECT_NAME    = STARLINK-36306
OBJECT_ID      = 2026-049U
CENTER_NAME    = EARTH
REF_FRAME      = TEME
TIME_SYSTEM    = UTC
MEAN_ELEMENT_THEORY = SGP/SGP4

EPOCH          = 2026-03-19T12:13:21.534528
MEAN_MOTION    = 16.04569636
ECCENTRICITY   = .0002364
INCLINATION    = 97.2782
RA_OF_ASC_NODE = 98.0789
ARG_OF_PERICENTER = 13.0399
MEAN_ANOMALY   = 347.0943

EPHEMERIS_TYPE = 0
CLASSIFICATION_TYPE = U
NORAD_CAT_ID   = 68160
ELEMENT_SET_NO = 999
REV_AT_EPOCH   = 95
BSTAR          = -.30343808E-3
MEAN_MOTION_DOT = -.201573E-2
MEAN_MOTION_DDOT = .18201465E-4

CCSDS_OMM_VERS = 2.0
CREATION_DATE  = 
ORIGINATOR     = 

OBJECT_NAME    = STARLINK-37057
OBJECT_ID      = 2026-049V
CENTER_NAME    = EARTH
REF_FRAME      = TEME
TIME_SYSTEM    = UTC
MEAN_ELEMENT_THEORY = SGP/SGP4

EPOCH          = 2026-03-19T07:45:00.944640
MEAN_MOTION    = 16.05035055
ECCENTRICITY   = .000232
INCLINATION    = 97.2783
RA_OF_ASC_NODE = 97.8730
ARG_OF_PERICENTER = 150.0328
MEAN_ANOMALY   = 210.1087

EPHEMERIS_TYPE = 0
CLASSIFICATION_TYPE = U
NORAD_CAT_ID   = 68161
ELEMENT_SET_NO = 999
REV_AT_EPOCH   = 92
BSTAR          = .16636E-3
MEAN_MOTION_DOT = .112551E-2
MEAN_MOTION_DDOT = .7734E-5

CCSDS_OMM_VERS = 2.0
CREATION_DATE  = 
ORIGINATOR     = 

OBJECT_NAME    = STARLINK-37013
OBJECT_ID      = 2026-049W
CENTER_NAME    = EARTH
REF_FRAME      = TEME
TIME_SYSTEM    = UTC
MEAN_ELEMENT_THEORY = SGP/SGP4

EPOCH          = 2026-03-19T12:11:26.870496
MEAN_MOTION    = 16.05836372
ECCENTRICITY   = .0005289
INCLINATION    = 97.2782
RA_OF_ASC_NODE = 98.0812
ARG_OF_PERICENTER = 356.1624
MEAN_ANOMALY   = 3.9616

EPHEMERIS_TYPE = 0
CLASSIFICATION_TYPE = U
NORAD_CAT_ID   = 68162
ELEMENT_SET_NO = 999
REV_AT_EPOCH   = 95
BSTAR          = .83676E-3
MEAN_MOTION_DOT = .596665E-2
MEAN_MOTION_DDOT = .1756E-3

CCSDS_OMM_VERS = 2.0
CREATION_DATE  = 
ORIGINATOR     = 

OBJECT_NAME    = STARLINK-36958
OBJECT_ID      = 2026-049X
CENTER_NAME    = EARTH
REF_FRAME      = TEME
TIME_SYSTEM    = UTC
MEAN_ELEMENT_THEORY = SGP/SGP4

EPOCH          = 2026-03-19T07:42:37.738368
MEAN_MOTION    = 16.06800152
ECCENTRICITY   = .0002229
INCLINATION    = 97.2782
RA_OF_ASC_NODE = 97.8761
ARG_OF_PERICENTER = 145.2478
MEAN_ANOMALY   = 214.8950

EPHEMERIS_TYPE = 0
CLASSIFICATION_TYPE = U
NORAD_CAT_ID   = 68163
ELEMENT_SET_NO = 999
REV_AT_EPOCH   = 92
BSTAR          = .11064E-2
MEAN_MOTION_DOT = .833356E-2
MEAN_MOTION_DDOT = .3694E-3

